ADRAS-J                 
1 58992U 24034A   24177.54981948  .00004411  00000+0  41087-3 0  9997
2 58992  98.2127 150.9477 0044502  23.7415 336.5844 14.94083073 19118
